[{"OBJECT_NAME":"TIANMU-1 08","OBJECT_ID":"2023-101B","EPOCH":"2026-03-07T00:03:25.475616","MEAN_MOTION":15.29204229,"ECCENTRICITY":0.00063808,"INCLINATION":97.2717,"RA_OF_ASC_NODE":118.7901,"ARG_OF_PERICENTER":134.2174,"MEAN_ANOMALY":225.9592,"EPHEMERIS_TYPE":0,"CLASSIFICATION_TYPE":"U","NORAD_CAT_ID":57400,"ELEMENT_SET_NO":999,"REV_AT_EPOCH":14602,"BSTAR":1.4774513e-5,"MEAN_MOTION_DOT":3.46e-6,"MEAN_MOTION_DDOT":0},{"OBJECT_NAME":"STARLINK-31764","OBJECT_ID":"2024-082Y","EPOCH":"2026-03-09T05:30:12.005568","MEAN_MOTION":15.27582221,"ECCENTRICITY":8.592e-5,"INCLINATION":42.9998,"RA_OF_ASC_NODE":142.2225,"ARG_OF_PERICENTER":256.2359,"MEAN_ANOMALY":103.8397,"EPHEMERIS_TYPE":0,"CLASSIFICATION_TYPE":"U","NORAD_CAT_ID":59653,"ELEMENT_SET_NO":999,"REV_AT_EPOCH":10494,"BSTAR":-7.7020434e-5,"MEAN_MOTION_DOT":-2.381e-5,"MEAN_MOTION_DDOT":0}]
